QIANFAN-105             
1 66047U 25233Q   25339.26808419  .00000584  00000+0  39245-3 0  9990
2 66047  88.9964  62.9560 0017183  64.9868 295.3093 13.99260969  6942
QIANFAN-106             
1 66048U 25233R   25339.30139523  .00000270  00000+0  18695-3 0  9997
2 66048  88.9959  62.9598 0017707  63.9896 296.3102 13.96120949  6942
QIANFAN-107             
1 66049U 25233S   25337.70136411  .00000218  00000+0  14793-3 0  9990
2 66049  88.9943  63.1349 0015670  74.9410 285.3499 13.96344546  6728
QIANFAN-108             
1 66050U 25233T   25337.78291420  .00000296  00000+0  20627-3 0  9991
2 66050  88.9962  63.1237 0016806  71.5015 288.7986 13.96034061  6730
